{
    "links": {
        "self": "http://www.neowsapp.com/rest/v1/neo/3611406?api_key=iIulBulltgU6a56xZRHN4H3l9WmuAYTsLGpBGhQ2"
    },
    "id": "3611406",
    "neo_reference_id": "3611406",
    "name": "(2012 TV231)",
    "designation": "2012 TV231",
    "nasa_jpl_url": "http://ssd.jpl.nasa.gov/sbdb.cgi?sstr=3611406",
    "absolute_magnitude_h": 23.1,
    "estimated_diameter": {
        "kilometers": {
            "estimated_diameter_min": 0.063760979,
            "estimated_diameter_max": 0.1425738833
        },
        "meters": {
            "estimated_diameter_min": 63.7609789875,
            "estimated_diameter_max": 142.5738833281
        },
        "miles": {
            "estimated_diameter_min": 0.0396192233,
            "estimated_diameter_max": 0.0885912765
        },
        "feet": {
            "estimated_diameter_min": 209.1895703015,
            "estimated_diameter_max": 467.7620993781
        }
    },
    "is_potentially_hazardous_asteroid": false,
    "close_approach_data": [
        {
            "close_approach_date": "2012-10-13",
            "close_approach_date_full": "2012-Oct-13 12:35",
            "epoch_date_close_approach": 1350131700000,
            "relative_velocity": {
                "kilometers_per_second": "5.6459153309",
                "kilometers_per_hour": "20325.2951913402",
                "miles_per_hour": "12629.3480037525"
            },
            "miss_distance": {
                "astronomical": "0.2495354328",
                "lunar": "97.0692833592",
                "kilometers": "37329969.236408136",
                "miles": "23195767.2814828368"
            },
            "orbiting_body": "Earth"
        }
    ],
    "orbital_data": {
        "orbit_id": "8",
        "orbit_determination_date": "2017-04-06 08:48:33",
        "first_observation_date": "2012-10-15",
        "last_observation_date": "2012-11-15",
        "data_arc_in_days": 31,
        "observations_used": 27,
        "orbit_uncertainty": "7",
        "minimum_orbit_intersection": ".254782",
        "jupiter_tisserand_invariant": "3.473",
        "epoch_osculation": "2459000.5",
        "eccentricity": ".445246686082572",
        "semi_major_axis": "2.25127495307667",
        "inclination": "9.617750732354002",
        "ascending_node_longitude": "31.89529784513261",
        "orbital_period": "1233.789972433269",
        "perihelion_distance": "1.248902240758585",
        "perihelion_argument": "347.3673232666731",
        "aphelion_distance": "3.253647665394756",
        "perihelion_time": "2458680.487229793518",
        "mean_anomaly": "93.37456118818012",
        "mean_motion": ".2917838595251437",
        "equinox": "J2000",
        "orbit_class": {
            "orbit_class_type": "AMO",
            "orbit_class_description": "Near-Earth asteroid orbits similar to that of 1221 Amor",
            "orbit_class_range": "1.017 AU < q (perihelion) < 1.3 AU"
        }
    },
    "is_sentry_object": false
}